NORAD_CAT_ID,OBJECT_NAME,OBJECT_TYPE,EPOCH,MEAN_MOTION,ECCENTRICITY,INCLINATION,RA_OF_ASC_NODE,ARG_OF_PERICENTER,MEAN_ANOMALY,BSTAR,MEAN_MOTION_DOT,MEAN_MOTION_DDOT,TLE_LINE0,TLE_LINE1,TLE_LINE2,SEMIMAJOR_AXIS,PERIOD,APOGEE,PERIGEE,DECAYED
55947.0,STARLINK-5851,PAYLOAD,2023-04-05 14:00:01,15.69880053,0.0002581,69.9993,128.1618,275.2103,90.3911,0.00015063,0.00017903,0.0,0 STARLINK-5851,1 55947U 23037AK  23095.58334491  .00017903  00000-0  15063-3 0  9999,2 55947  69.9993 128.1618 0002581 275.2103  90.3911 15.69880053  1302,6737.377,91.727,360.981,357.503,0.0
55947.0,STARLINK-5851,PAYLOAD,2023-04-05 16:00:00,15.69904875,0.0002552,69.9994,127.9275,274.0231,202.3944,-0.00030312,-0.00036468,0.0,0 STARLINK-5851,1 55947U 23037AK  23095.66667824 -.00036468  00000-0 -30312-3 0  9990,2 55947  69.9994 127.9275 0002552 274.0231 202.3944 15.69904875  3498,6737.306,91.725,360.891,357.452,0.0
55947.0,STARLINK-5851,PAYLOAD,2023-04-05 22:00:00,15.69865377,0.0002741,69.9987,127.2246,266.8567,182.0554,0.00027191,0.00032526,0.0,0 STARLINK-5851,1 55947U 23037AK  23095.91667824  .00032526  00000-0  27191-3 0  9998,2 55947  69.9987 127.2246 0002741 266.8567 182.0554 15.69865377  1304,6737.419,91.728,361.131,357.437,0.0
55947.0,STARLINK-5851,PAYLOAD,2023-04-06 10:00:00,15.69846566,0.0002882,69.9998,125.8188,279.7833,114.1105,0.00048101,0.00057834,0.0,0 STARLINK-5851,1 55947U 23037AK  23096.41667824  .00057834  00000-0  48101-3 0  9997,2 55947  69.9998 125.8188 0002882 279.7833 114.1105 15.69846566  3613,6737.473,91.729,361.28,357.396,0.0
55947.0,STARLINK-5851,PAYLOAD,2023-04-06 14:00:01,15.69882381,0.000298,69.9996,125.35,279.6206,335.9682,9.6766e-05,0.00011418,0.0,0 STARLINK-5851,1 55947U 23037AK  23096.58335648  .00011418  00000-0  96766-4 0  9990,2 55947  69.9996 125.3500 0002980 279.6206 335.9682 15.69882381  1308,6737.371,91.727,361.243,357.228,0.0
55947.0,STARLINK-5851,PAYLOAD,2023-04-06 22:00:00,15.69852734,0.0002948,69.9996,124.4131,269.9133,68.9142,0.00050549,0.00060826,0.0,0 STARLINK-5851,1 55947U 23037AK  23096.91667824  .00060826  00000-0  50549-3 0  9996,2 55947  69.9996 124.4131 0002948 269.9133  68.9142 15.69852734  3690,6737.455,91.728,361.307,357.334,0.0
55947.0,STARLINK-5851,PAYLOAD,2023-04-07 14:00:01,15.6993499,0.0002989,69.9993,122.5388,274.2363,231.1567,-0.00015461,-0.00018769,0.0,0 STARLINK-5851,1 55947U 23037AK  23097.58334491 -.00018769  00000-0 -15461-3 0  9996,2 55947  69.9993 122.5388 0002989 274.2363 231.1567 15.69934990  3790,6737.22,91.724,361.099,357.071,0.0
55947.0,STARLINK-5851,PAYLOAD,2023-04-08 10:47:30,15.69926522,0.0003203,69.9995,120.1037,268.7858,91.297,0.00011438,0.00013564,0.0,0 STARLINK-5851,1 55947U 23037AK  23098.44966171  .00013564  00000-0  11438-3 0  9994,2 55947  69.9995 120.1037 0003203 268.7858  91.2970 15.69926522  3935,6737.244,91.724,361.267,356.951,0.0
55947.0,STARLINK-5851,PAYLOAD,2023-04-09 03:36:47,15.69934254,0.0002884,69.9992,118.1338,263.7125,96.3742,4.1071e-05,4.73e-05,0.0,0 STARLINK-5851,1 55947U 23037AK  23099.15054463  .00004730  00000-0  41071-4 0  9997,2 55947  69.9992 118.1338 0002884 263.7125  96.3742 15.69934254  4046,6737.222,91.724,361.03,357.144,0.0
55947.0,STARLINK-5851,PAYLOAD,2023-04-09 11:15:32,15.69936775,0.0002812,70.0013,117.2388,262.2706,97.817,7.0328e-05,8.256e-05,0.0,0 STARLINK-5851,1 55947U 23037AK  23099.46912740  .00008256  00000-0  70328-4 0  9996,2 55947  70.0013 117.2388 0002812 262.2706  97.8170 15.69936775  3756,6737.215,91.723,360.974,357.185,0.0
55947.0,STARLINK-5851,PAYLOAD,2023-04-09 12:47:18,15.69926327,0.0002477,69.9995,117.0586,285.9961,74.0962,4.6393e-05,5.369e-05,0.0,0 STARLINK-5851,1 55947U 23037AK  23099.53284869  .00005369  00000-0  46393-4 0  9995,2 55947  69.9995 117.0586 0002477 285.9961  74.0962 15.69926327  4100,6737.245,91.724,360.779,357.441,0.0
55947.0,STARLINK-5851,PAYLOAD,2023-04-10 13:15:19,15.69933759,0.0003318,70.0001,114.1922,268.0908,91.9908,7.7535e-05,9.124e-05,0.0,0 STARLINK-5851,1 55947U 23037AK  23100.55231055  .00009124  00000-0  77535-4 0  9994,2 55947  70.0001 114.1922 0003318 268.0908  91.9908 15.69933759  4263,6737.224,91.724,361.324,356.853,0.0
55947.0,STARLINK-5851,PAYLOAD,2023-04-10 17:50:35,15.69927881,0.0003171,70.0003,113.6536,269.1497,90.9335,4.452e-05,5.144e-05,0.0,0 STARLINK-5851,1 55947U 23037AK  23100.74346151  .00005144  00000-0  44520-4 0  9995,2 55947  70.0003 113.6536 0003171 269.1497  90.9335 15.69927881  3959,6737.24,91.724,361.242,356.969,0.0
55947.0,STARLINK-5851,PAYLOAD,2023-04-11 12:11:36,15.69921364,0.0002863,69.9994,111.5047,265.3303,94.7566,-2.3217e-06,-4.92e-06,0.0,0 STARLINK-5851,1 55947U 23037AK  23101.50806671 -.00000492  00000-0 -23217-5 0  9992,2 55947  69.9994 111.5047 0002863 265.3303  94.7566 15.69921364  4072,6737.259,91.724,361.053,357.195,0.0
55947.0,STARLINK-5851,PAYLOAD,2023-04-11 18:18:37,15.69928079,0.0003051,69.9981,110.7885,270.9545,89.1301,1.9511e-05,2.134e-05,0.0,0 STARLINK-5851,1 55947U 23037AK  23101.76292994  .00002134  00000-0  19511-4 0  9991,2 55947  69.9981 110.7885 0003051 270.9545  89.1301 15.69928079  4119,6737.24,91.724,361.16,357.049,0.0
55947.0,STARLINK-5851,PAYLOAD,2023-04-12 11:07:53,15.69921845,0.0003254,69.9999,108.8179,263.1446,96.9379,5.4903e-06,4.47e-06,0.0,0 STARLINK-5851,1 55947U 23037AK  23102.46381620  .00000447  00000-0  54903-5 0  9994,2 55947  69.9999 108.8179 0003254 263.1446  96.9379 15.69921845  4565,6737.258,91.724,361.315,356.93,0.0
55947.0,STARLINK-5851,PAYLOAD,2023-04-13 10:04:11,15.69913824,0.0002472,70.0002,106.1295,275.9212,84.1701,4.4171e-07,-1.59e-06,0.0,0 STARLINK-5851,1 55947U 23037AK  23103.41957348 -.00000159  00000-0  44171-6 0  9994,2 55947  70.0002 106.1295 0002472 275.9212  84.1701 15.69913824  4371,6737.281,91.725,360.811,357.48,0.0
55947.0,STARLINK-5851,PAYLOAD,2023-04-14 10:32:12,15.69927673,0.0002967,69.9996,103.2662,268.1176,91.968,1.1092e-05,1.121e-05,0.0,0 STARLINK-5851,1 55947U 23037AK  23104.43903314  .00001121  00000-0  11092-4 0  9994,2 55947  69.9996 103.2662 0002967 268.1176  91.9680 15.69927673  4535,6737.241,91.724,361.105,357.107,0.0
55947.0,STARLINK-5851,PAYLOAD,2023-04-15 06:24:59,15.69930266,0.0002747,70.0011,100.9378,259.6751,100.4135,1.7568e-05,1.901e-05,0.0,0 STARLINK-5851,1 55947U 23037AK  23105.26734979  .00001901  00000-0  17568-4 0  9995,2 55947  70.0011 100.9378 0002747 259.6751 100.4135 15.69930266  5000,6737.234,91.724,360.949,357.248,0.0
55947.0,STARLINK-5851,PAYLOAD,2023-04-15 09:28:30,15.69904341,0.0002343,70.0008,100.5784,259.622,100.4711,-3.5917e-05,-4.524e-05,0.0,0 STARLINK-5851,1 55947U 23037AK  23105.39479614 -.00004524  00000-0 -35917-4 0  9995,2 55947  70.0008 100.5784 0002343 259.6220 100.4711 15.69904341  4684,6737.308,91.725,360.751,357.594,0.0
55947.0,STARLINK-5851,PAYLOAD,2023-04-15 17:07:15,15.69923921,0.0003129,69.9971,99.6813,269.2517,90.832,1.4011e-05,1.472e-05,0.0,0 STARLINK-5851,1 55947U 23037AK  23105.71337014  .00001472  00000-0  14011-4 0  9997,2 55947  69.9971  99.6813 0003129 269.2517  90.8320 15.69923921  4739,6737.252,91.724,361.225,357.009,0.0
55947.0,STARLINK-5851,PAYLOAD,2023-04-16 09:56:31,15.69924815,0.000337,70.0004,97.7134,265.7653,94.3157,1.4418e-05,1.521e-05,0.0,0 STARLINK-5851,1 55947U 23037AK  23106.41425334  .00001521  00000-0  14418-4 0  9994,2 55947  70.0004  97.7134 0003370 265.7653  94.3157 15.69924815  4846,6737.249,91.724,361.385,356.844,0.0
55947.0,STARLINK-5851,PAYLOAD,2023-04-17 02:45:48,15.69922462,0.0003122,70.0013,95.7428,267.7875,92.2963,2.882e-05,3.254e-05,0.0,0 STARLINK-5851,1 55947U 23037AK  23107.11514119  .00003254  00000-0  28820-4 0  9999,2 55947  70.0013  95.7428 0003122 267.7875  92.2963 15.69922462  5291,6737.256,91.724,361.224,357.017,0.0
55947.0,STARLINK-5851,PAYLOAD,2023-04-17 08:52:49,15.69913478,0.0002211,70.0011,95.0253,284.3982,75.6968,9.3669e-06,9.14e-06,0.0,0 STARLINK-5851,1 55947U 23037AK  23107.37001614  .00000914  00000-0  93669-5 0  9992,2 55947  70.0011  95.0253 0002211 284.3982  75.6968 15.69913478  4993,6737.282,91.725,360.636,357.657,0.0
55947.0,STARLINK-5851,PAYLOAD,2023-04-18 09:20:50,15.6993104,0.0003076,70.0025,92.1607,266.8314,93.253,2.5395e-05,2.843e-05,0.0,0 STARLINK-5851,1 55947U 23037AK  23108.38947180  .00002843  00000-0  25395-4 0  9994,2 55947  70.0025  92.1607 0003076 266.8314  93.2530 15.69931040  5158,6737.231,91.724,361.169,357.024,0.0
55947.0,STARLINK-5851,PAYLOAD,2023-04-19 08:17:07,15.69928326,0.0002454,70.002,89.4736,247.1771,112.9166,3.1297e-05,3.553e-05,0.0,0 STARLINK-5851,1 55947U 23037AK  23109.34522432  .00003553  00000-0  31297-4 0  9997,2 55947  70.0020  89.4736 0002454 247.1771 112.9166 15.69928326  5644,6737.239,91.724,360.757,357.451,0.0
55947.0,STARLINK-5851,PAYLOAD,2023-04-20 07:13:24,15.69928902,0.0002995,70.0012,86.7806,260.4407,99.645,2.111e-05,2.327e-05,0.0,0 STARLINK-5851,1 55947U 23037AK  23110.30097277  .00002327  00000-0  21110-4 0  9990,2 55947  70.0012  86.7806 0002995 260.4407  99.6450 15.69928902  5453,6737.237,91.724,361.12,357.085,0.0
55947.0,STARLINK-5851,PAYLOAD,2023-04-21 06:09:41,15.69925708,0.0002987,70.0021,84.0983,225.1868,134.9086,1.7526e-05,1.895e-05,0.0,0 STARLINK-5851,1 55947U 23037AK  23111.25672543  .00001895  00000-0  17526-4 0  9995,2 55947  70.0021  84.0983 0002987 225.1868 134.9086 15.69925708  5943,6737.247,91.724,361.124,357.099,0.0
55947.0,STARLINK-5851,PAYLOAD,2023-04-21 15:20:11,15.69923064,0.0003196,70.0004,83.0211,269.966,90.117,1.8644e-05,2.03e-05,0.0,0 STARLINK-5851,1 55947U 23037AK  23111.63902740  .00002030  00000-0  18644-4 0  9996,2 55947  70.0004  83.0211 0003196 269.9660  90.1170 15.69923064  6004,6737.254,91.724,361.272,356.966,0.0
55947.0,STARLINK-5851,PAYLOAD,2023-04-22 20:23:29,15.69920742,0.0003006,70.0022,79.6216,252.8845,107.2022,-1.5268e-05,-2.047e-05,0.0,0 STARLINK-5851,1 55947U 23037AK  23112.84964770 -.00002047  00000-0 -15268-4 0  9990,2 55947  70.0022  79.6216 0003006 252.8845 107.2022 15.69920742  5854,6737.261,91.724,361.151,357.101,0.0
